[{"OBJECT_NAME":"SL-16 R/B","OBJECT_ID":"1993-059B","EPOCH":"2026-03-24T10:33:46.055232","MEAN_MOTION":14.17235379,"ECCENTRICITY":0.0017672,"INCLINATION":70.9928,"RA_OF_ASC_NODE":340.023,"ARG_OF_PERICENTER":195.2213,"MEAN_ANOMALY":164.8382,"EPHEMERIS_TYPE":0,"CLASSIFICATION_TYPE":"U","NORAD_CAT_ID":22803,"ELEMENT_SET_NO":999,"REV_AT_EPOCH":68162,"BSTAR":2.7727e-5,"MEAN_MOTION_DOT":8.0e-8,"MEAN_MOTION_DDOT":0},{"OBJECT_NAME":"ARIANE 40 R/B","OBJECT_ID":"1993-061H","EPOCH":"2026-03-24T10:23:11.870592","MEAN_MOTION":14.32868524,"ECCENTRICITY":0.0009785,"INCLINATION":98.4889,"RA_OF_ASC_NODE":152.0276,"ARG_OF_PERICENTER":236.4133,"MEAN_ANOMALY":123.6117,"EPHEMERIS_TYPE":0,"CLASSIFICATION_TYPE":"U","NORAD_CAT_ID":22830,"ELEMENT_SET_NO":999,"REV_AT_EPOCH":69621,"BSTAR":9.9084e-5,"MEAN_MOTION_DOT":2.27e-6,"MEAN_MOTION_DDOT":0},{"OBJECT_NAME":"COSMOS 2278","OBJECT_ID":"1994-023A","EPOCH":"2026-03-24T10:47:31.048224","MEAN_MOTION":14.14377142,"ECCENTRICITY":0.0008987,"INCLINATION":71.053,"RA_OF_ASC_NODE":144.2201,"ARG_OF_PERICENTER":349.3352,"MEAN_ANOMALY":10.7579,"EPHEMERIS_TYPE":0,"CLASSIFICATION_TYPE":"U","NORAD_CAT_ID":23087,"ELEMENT_SET_NO":999,"REV_AT_EPOCH":64689,"BSTAR":-0.00010086,"MEAN_MOTION_DOT":-2.4e-6,"MEAN_MOTION_DDOT":0},{"OBJECT_NAME":"SL-16 R/B","OBJECT_ID":"1994-023B","EPOCH":"2026-03-24T04:57:43.716672","MEAN_MOTION":14.15011966,"ECCENTRICITY":0.0005471,"INCLINATION":71.0005,"RA_OF_ASC_NODE":40.3975,"ARG_OF_PERICENTER":271.7403,"MEAN_ANOMALY":88.3093,"EPHEMERIS_TYPE":0,"CLASSIFICATION_TYPE":"U","NORAD_CAT_ID":23088,"ELEMENT_SET_NO":999,"REV_AT_EPOCH":64814,"BSTAR":0.00015896,"MEAN_MOTION_DOT":2.6e-6,"MEAN_MOTION_DDOT":0},{"OBJECT_NAME":"SL-16 R/B","OBJECT_ID":"1994-074B","EPOCH":"2026-03-24T13:21:24.522048","MEAN_MOTION":14.79424095,"ECCENTRICITY":0.0006976,"INCLINATION":97.7088,"RA_OF_ASC_NODE":113.771,"ARG_OF_PERICENTER":160.9272,"MEAN_ANOMALY":359.0313,"EPHEMERIS_TYPE":0,"CLASSIFICATION_TYPE":"U","NORAD_CAT_ID":23343,"ELEMENT_SET_NO":999,"REV_AT_EPOCH":68944,"BSTAR":6.6053e-5,"MEAN_MOTION_DOT":4.44e-6,"MEAN_MOTION_DDOT":0},{"OBJECT_NAME":"SL-16 R/B","OBJECT_ID":"1994-077B","EPOCH":"2026-03-24T09:28:21.658368","MEAN_MOTION":14.15568542,"ECCENTRICITY":0.0002225,"INCLINATION":70.9842,"RA_OF_ASC_NODE":321.5545,"ARG_OF_PERICENTER":198.5212,"MEAN_ANOMALY":161.583,"EPHEMERIS_TYPE":0,"CLASSIFICATION_TYPE":"U","NORAD_CAT_ID":23405,"ELEMENT_SET_NO":999,"REV_AT_EPOCH":61831,"BSTAR":9.2148e-5,"MEAN_MOTION_DOT":1.32e-6,"MEAN_MOTION_DDOT":0},{"OBJECT_NAME":"ARIANE 40+ R/B","OBJECT_ID":"1995-021B","EPOCH":"2026-03-24T11:17:39.499584","MEAN_MOTION":14.39782762,"ECCENTRICITY":0.0007974,"INCLINATION":98.4472,"RA_OF_ASC_NODE":154.7511,"ARG_OF_PERICENTER":98.2675,"MEAN_ANOMALY":272.4214,"EPHEMERIS_TYPE":0,"CLASSIFICATION_TYPE":"U","NORAD_CAT_ID":23561,"ELEMENT_SET_NO":999,"REV_AT_EPOCH":62137,"BSTAR":0.00011221,"MEAN_MOTION_DOT":3.08e-6,"MEAN_MOTION_DDOT":0},{"OBJECT_NAME":"SL-16 R/B","OBJECT_ID":"1995-058B","EPOCH":"2026-03-24T11:21:11.884608","MEAN_MOTION":14.15500546,"ECCENTRICITY":0.0010146,"INCLINATION":71.0216,"RA_OF_ASC_NODE":149.2203,"ARG_OF_PERICENTER":98.3985,"MEAN_ANOMALY":261.8288,"EPHEMERIS_TYPE":0,"CLASSIFICATION_TYPE":"U","NORAD_CAT_ID":23705,"ELEMENT_SET_NO":999,"REV_AT_EPOCH":56994,"BSTAR":-5.9118e-5,"MEAN_MOTION_DOT":-1.63e-6,"MEAN_MOTION_DDOT":0},{"OBJECT_NAME":"SL-16 R/B","OBJECT_ID":"1996-051B","EPOCH":"2026-03-24T09:37:30.466848","MEAN_MOTION":14.12419714,"ECCENTRICITY":0.0013845,"INCLINATION":70.7593,"RA_OF_ASC_NODE":144.1026,"ARG_OF_PERICENTER":124.6492,"MEAN_ANOMALY":235.5934,"EPHEMERIS_TYPE":0,"CLASSIFICATION_TYPE":"U","NORAD_CAT_ID":24298,"ELEMENT_SET_NO":999,"REV_AT_EPOCH":52372,"BSTAR":7.6353e-5,"MEAN_MOTION_DOT":9.2e-7,"MEAN_MOTION_DDOT":0},{"OBJECT_NAME":"ORBVIEW 2 (SEASTAR)","OBJECT_ID":"1997-037A","EPOCH":"2026-03-24T09:41:26.342304","MEAN_MOTION":14.35504826,"ECCENTRICITY":0.000261,"INCLINATION":98.8593,"RA_OF_ASC_NODE":248.1074,"ARG_OF_PERICENTER":40.6732,"MEAN_ANOMALY":319.4647,"EPHEMERIS_TYPE":0,"CLASSIFICATION_TYPE":"U","NORAD_CAT_ID":24883,"ELEMENT_SET_NO":999,"REV_AT_EPOCH":51058,"BSTAR":0.0001147,"MEAN_MOTION_DOT":2.83e-6,"MEAN_MOTION_DDOT":0},{"OBJECT_NAME":"SL-16 R/B","OBJECT_ID":"1998-043G","EPOCH":"2026-03-24T09:29:49.907328","MEAN_MOTION":14.26053021,"ECCENTRICITY":0.0009438,"INCLINATION":98.828,"RA_OF_ASC_NODE":36.8656,"ARG_OF_PERICENTER":337.9634,"MEAN_ANOMALY":22.1138,"EPHEMERIS_TYPE":0,"CLASSIFICATION_TYPE":"U","NORAD_CAT_ID":25400,"ELEMENT_SET_NO":999,"REV_AT_EPOCH":44108,"BSTAR":5.009e-5,"MEAN_MOTION_DOT":7.4e-7,"MEAN_MOTION_DDOT":0},{"OBJECT_NAME":"SL-16 R/B","OBJECT_ID":"1998-045B","EPOCH":"2026-03-24T11:26:28.780800","MEAN_MOTION":14.16195301,"ECCENTRICITY":0.0007753,"INCLINATION":71.0114,"RA_OF_ASC_NODE":150.4798,"ARG_OF_PERICENTER":344.6506,"MEAN_ANOMALY":15.4381,"EPHEMERIS_TYPE":0,"CLASSIFICATION_TYPE":"U","NORAD_CAT_ID":25407,"ELEMENT_SET_NO":999,"REV_AT_EPOCH":42919,"BSTAR":-6.1505e-5,"MEAN_MOTION_DOT":-1.7e-6,"MEAN_MOTION_DDOT":0},{"OBJECT_NAME":"ISS (ZARYA)","OBJECT_ID":"1998-067A","EPOCH":"2026-03-24T11:40:14.731104","MEAN_MOTION":15.48523431,"ECCENTRICITY":0.0006234,"INCLINATION":51.6345,"RA_OF_ASC_NODE":359.2131,"ARG_OF_PERICENTER":227.6352,"MEAN_ANOMALY":132.4108,"EPHEMERIS_TYPE":0,"CLASSIFICATION_TYPE":"U","NORAD_CAT_ID":25544,"ELEMENT_SET_NO":999,"REV_AT_EPOCH":55862,"BSTAR":0.00025488,"MEAN_MOTION_DOT":0.00013391,"MEAN_MOTION_DDOT":0},{"OBJECT_NAME":"CZ-4B R/B","OBJECT_ID":"1999-025C","EPOCH":"2026-03-24T13:40:35.306112","MEAN_MOTION":14.18268188,"ECCENTRICITY":0.0036107,"INCLINATION":98.6597,"RA_OF_ASC_NODE":127.497,"ARG_OF_PERICENTER":303.0046,"MEAN_ANOMALY":213.5951,"EPHEMERIS_TYPE":0,"CLASSIFICATION_TYPE":"U","NORAD_CAT_ID":25732,"ELEMENT_SET_NO":999,"REV_AT_EPOCH":39027,"BSTAR":3.7632e-5,"MEAN_MOTION_DOT":3.5e-7,"MEAN_MOTION_DDOT":0},{"OBJECT_NAME":"OKEAN-O","OBJECT_ID":"1999-039A","EPOCH":"2026-03-24T04:25:35.305824","MEAN_MOTION":14.80357799,"ECCENTRICITY":9.182e-5,"INCLINATION":97.9412,"RA_OF_ASC_NODE":142.9265,"ARG_OF_PERICENTER":83.2794,"MEAN_ANOMALY":276.8523,"EPHEMERIS_TYPE":0,"CLASSIFICATION_TYPE":"U","NORAD_CAT_ID":25860,"ELEMENT_SET_NO":999,"REV_AT_EPOCH":43653,"BSTAR":9.864939e-5,"MEAN_MOTION_DOT":7.0e-6,"MEAN_MOTION_DDOT":0},{"OBJECT_NAME":"SL-16 R/B","OBJECT_ID":"1999-039B","EPOCH":"2026-03-24T10:05:56.238720","MEAN_MOTION":14.81750772,"ECCENTRICITY":0.0014219,"INCLINATION":97.9935,"RA_OF_ASC_NODE":142.4932,"ARG_OF_PERICENTER":204.8303,"MEAN_ANOMALY":155.2227,"EPHEMERIS_TYPE":0,"CLASSIFICATION_TYPE":"U","NORAD_CAT_ID":25861,"ELEMENT_SET_NO":999,"REV_AT_EPOCH":43904,"BSTAR":8.1608e-5,"MEAN_MOTION_DOT":5.9e-6,"MEAN_MOTION_DDOT":0},{"OBJECT_NAME":"DELTA 2 R/B","OBJECT_ID":"1999-041E","EPOCH":"2026-03-23T17:47:58.967808","MEAN_MOTION":14.11869343,"ECCENTRICITY":0.05026176,"INCLINATION":51.7605,"RA_OF_ASC_NODE":245.1476,"ARG_OF_PERICENTER":29.8785,"MEAN_ANOMALY":332.9857,"EPHEMERIS_TYPE":0,"CLASSIFICATION_TYPE":"U","NORAD_CAT_ID":25876,"ELEMENT_SET_NO":999,"REV_AT_EPOCH":36501,"BSTAR":0.00011787964,"MEAN_MOTION_DOT":4.86e-6,"MEAN_MOTION_DDOT":0}]
